{
"type": "FeatureCollection",
"name": "ca_wwtp_cdr_viability",
"crs": { "type": "name", "properties": { "name": "urn:ogc:def:crs:OGC:1.3:CRS84" } },
"features": [
{ "type": "Feature", "properties": { "facility_name": "San Jose WWTP", "flow_mgd": 110, "Latitude_left": 37.42, "Longitude_left": -121.95, "index_right": 0, "site_name": "Permanente Quarry", "Latitude_right": 37.31, "Longitude_right": -122.09, "haul_distance_meters": 17402.115017024305, "haul_distance_miles": 10.81316961024341, "est_co2_t_yr": 6600, "viability_index": 10.07956477619031 }, "geometry": { "type": "Point", "coordinates": [ -121.95, 37.42 ] } },
{ "type": "Feature", "properties": { "facility_name": "Sacramento Regional", "flow_mgd": 130, "Latitude_left": 38.45, "Longitude_left": -121.49, "index_right": 2, "site_name": "Placerville Quarry", "Latitude_right": 38.72, "Longitude_right": -120.8, "haul_distance_meters": 67121.796230546432, "haul_distance_miles": 41.707537645570866, "est_co2_t_yr": 7800, "viability_index": 3.1094871241184503 }, "geometry": { "type": "Point", "coordinates": [ -121.49, 38.45 ] } },
{ "type": "Feature", "properties": { "facility_name": "Hyperion LA", "flow_mgd": 260, "Latitude_left": 33.92, "Longitude_left": -118.43, "index_right": 1, "site_name": "Lucerne Valley Quarry", "Latitude_right": 34.35, "Longitude_right": -116.89, "haul_distance_meters": 149824.39591482206, "haul_distance_miles": 93.096534713988902, "est_co2_t_yr": 15600, "viability_index": 2.789803298995126 }, "geometry": { "type": "Point", "coordinates": [ -118.43, 33.92 ] } }
]
}
